{
  "type": "FeatureCollection",
  "features": [
    {
      "type": "Feature",
      "properties": {
        "norad_id": 34918,
        "name": "COSMOS 2251 DEB",
        "group": "cosmos-2251-debris",
        "lat": 73.63948534745128,
        "lon": 61.857153884851876,
        "alt_km": 706.0141181087647,
        "timestamp": "2025-12-10T04:57:30.017393+00:00",
        "meta_object_name": "COSMOS 2251 DEB",
        "meta_object_id": "1993-036ADP",
        "meta_epoch": "2025-12-02T07:49:20.078112",
        "meta_mean_motion": 14.60858458,
        "meta_eccentricity": 0.0034182,
        "meta_inclination": 74.0712,
        "meta_ra_of_asc_node": 333.4916,
        "meta_arg_of_pericenter": 302.4495,
        "meta_mean_anomaly": 120.4085,
        "meta_ephemeris_type": 0,
        "meta_classification_type": "U",
        "meta_norad_cat_id": 34918,
        "meta_element_set_no": 999,
        "meta_rev_at_epoch": 65184,
        "meta_bstar": 0.0024749,
        "meta_mean_motion_dot": 0.00012194,
        "meta_mean_motion_ddot": 0,
        "tle_line1": "1 34918U 93036ADP 25336.32592683  .00012194  00000+0  24749-2 0  9997",
        "tle_line2": "2 34918  74.0712 333.4916 0034182 302.4495 120.4085 14.60858458651845"
      },
      "geometry": {
        "type": "Point",
        "coordinates": [
          61.857153884851876,
          73.63948534745128
        ]
      }
    },
    {
      "type": "Feature",
      "properties": {
        "norad_id": 34924,
        "name": "COSMOS 2251 DEB",
        "group": "cosmos-2251-debris",
        "lat": 70.892736707981,
        "lon": -141.414126757265,
        "alt_km": 678.3585407464552,
        "timestamp": "2025-12-10T04:57:30.017403+00:00",
        "meta_object_name": "COSMOS 2251 DEB",
        "meta_object_id": "1993-036ADV",
        "meta_epoch": "2025-12-09T17:40:35.016096",
        "meta_mean_motion": 14.59983788,
        "meta_eccentricity": 0.0054646,
        "meta_inclination": 74.0408,
        "meta_ra_of_asc_node": 95.1777,
        "meta_arg_of_pericenter": 180.5365,
        "meta_mean_anomaly": 330.9802,
        "meta_ephemeris_type": 0,
        "meta_classification_type": "U",
        "meta_norad_cat_id": 34924,
        "meta_element_set_no": 999,
        "meta_rev_at_epoch": 87679,
        "meta_bstar": 0.0017479,
        "meta_mean_motion_dot": 8.543e-05,
        "meta_mean_motion_ddot": 0,
        "tle_line1": "1 34924U 93036ADV 25343.73651639  .00008543  00000+0  17479-2 0  9999",
        "tle_line2": "2 34924  74.0408  95.1777 0054646 180.5365 330.9802 14.59983788876790"
      },
      "geometry": {
        "type": "Point",
        "coordinates": [
          -141.414126757265,
          70.892736707981
        ]
      }
    },
    {
      "type": "Feature",
      "properties": {
        "norad_id": 34944,
        "name": "COSMOS 2251 DEB",
        "group": "cosmos-2251-debris",
        "lat": -72.73510190465947,
        "lon": 126.40449946430674,
        "alt_km": 1010.6144734130448,
        "timestamp": "2025-12-10T04:57:30.017413+00:00",
        "meta_object_name": "COSMOS 2251 DEB",
        "meta_object_id": "1993-036ADX",
        "meta_epoch": "2025-12-07T09:30:46.029312",
        "meta_mean_motion": 14.14167925,
        "meta_eccentricity": 0.02195348,
        "meta_inclination": 73.7495,
        "meta_ra_of_asc_node": 241.6775,
        "meta_arg_of_pericenter": 90.2413,
        "meta_mean_anomaly": 272.3884,
        "meta_ephemeris_type": 0,
        "meta_classification_type": "U",
        "meta_norad_cat_id": 34944,
        "meta_element_set_no": 999,
        "meta_rev_at_epoch": 64007,
        "meta_bstar": 0.00099492053,
        "meta_mean_motion_dot": 2.364e-05,
        "meta_mean_motion_ddot": 0,
        "tle_line1": "1 34944U 93036ADX 25341.39636608  .00002364  00000+0  99492-3 0  9991",
        "tle_line2": "2 34944  73.7495 241.6775 0219534  90.2413 272.3884 14.14167925640077"
      },
      "geometry": {
        "type": "Point",
        "coordinates": [
          126.40449946430674,
          -72.73510190465947
        ]
      }
    },
    {
      "type": "Feature",
      "properties": {
        "norad_id": 34946,
        "name": "COSMOS 2251 DEB",
        "group": "cosmos-2251-debris",
        "lat": -66.13505351708409,
        "lon": -53.391439935202214,
        "alt_km": 726.6050114061973,
        "timestamp": "2025-12-10T04:57:30.017424+00:00",
        "meta_object_name": "COSMOS 2251 DEB",
        "meta_object_id": "1993-036ADZ",
        "meta_epoch": "2025-12-09T17:47:38.815872",
        "meta_mean_motion": 14.6197132,
        "meta_eccentricity": 0.0048739,
        "meta_inclination": 74.0236,
        "meta_ra_of_asc_node": 347.8579,
        "meta_arg_of_pericenter": 126.0022,
        "meta_mean_anomaly": 234.5678,
        "meta_ephemeris_type": 0,
        "meta_classification_type": "U",
        "meta_norad_cat_id": 34946,
        "meta_element_set_no": 999,
        "meta_rev_at_epoch": 88165,
        "meta_bstar": 0.0008897,
        "meta_mean_motion_dot": 4.507e-05,
        "meta_mean_motion_ddot": 0,
        "tle_line1": "1 34946U 93036ADZ 25343.74142148  .00004507  00000+0  88970-3 0  9995",
        "tle_line2": "2 34946  74.0236 347.8579 0048739 126.0022 234.5678 14.61971320881654"
      },
      "geometry": {
        "type": "Point",
        "coordinates": [
          -53.391439935202214,
          -66.13505351708409
        ]
      }
    },
    {
      "type": "Feature",
      "properties": {
        "norad_id": 34949,
        "name": "COSMOS 2251 DEB",
        "group": "cosmos-2251-debris",
        "lat": 69.07681433614884,
        "lon": 163.161595033385,
        "alt_km": 697.729360486841,
        "timestamp": "2025-12-10T04:57:30.017434+00:00",
        "meta_object_name": "COSMOS 2251 DEB",
        "meta_object_id": "1993-036AEC",
        "meta_epoch": "2025-12-09T15:34:41.030400",
        "meta_mean_motion": 14.73963573,
        "meta_eccentricity": 0.008042,
        "meta_inclination": 74.0182,
        "meta_ra_of_asc_node": 115.6941,
        "meta_arg_of_pericenter": 261.6413,
        "meta_mean_anomaly": 97.5637,
        "meta_ephemeris_type": 0,
        "meta_classification_type": "U",
        "meta_norad_cat_id": 34949,
        "meta_element_set_no": 999,
        "meta_rev_at_epoch": 88316,
        "meta_bstar": 0.00087029,
        "meta_mean_motion_dot": 5.989e-05,
        "meta_mean_motion_ddot": 0,
        "tle_line1": "1 34949U 93036AEC 25343.64908600  .00005989  00000+0  87029-3 0  9999",
        "tle_line2": "2 34949  74.0182 115.6941 0080420 261.6413  97.5637 14.73963573883168"
      },
      "geometry": {
        "type": "Point",
        "coordinates": [
          163.161595033385,
          69.07681433614884
        ]
      }
    },
    {
      "type": "Feature",
      "properties": {
        "norad_id": 34953,
        "name": "COSMOS 2251 DEB",
        "group": "cosmos-2251-debris",
        "lat": 72.14602092492339,
        "lon": 150.08107319518047,
        "alt_km": 645.0680612897258,
        "timestamp": "2025-12-10T04:57:30.017444+00:00",
        "meta_object_name": "COSMOS 2251 DEB",
        "meta_object_id": "1993-036AEG",
        "meta_epoch": "2025-12-09T14:29:39.473376",
        "meta_mean_motion": 14.68914598,
        "meta_eccentricity": 0.0057876,
        "meta_inclination": 74.0931,
        "meta_ra_of_asc_node": 33.5386,
        "meta_arg_of_pericenter": 26.5216,
        "meta_mean_anomaly": 125.376,
        "meta_ephemeris_type": 0,
        "meta_classification_type": "U",
        "meta_norad_cat_id": 34953,
        "meta_element_set_no": 999,
        "meta_rev_at_epoch": 88082,
        "meta_bstar": 0.0012028,
        "meta_mean_motion_dot": 7.195e-05,
        "meta_mean_motion_ddot": 0,
        "tle_line1": "1 34953U 93036AEG 25343.60392909  .00007195  00000+0  12028-2 0  9996",
        "tle_line2": "2 34953  74.0931  33.5386 0057876  26.5216 125.3760 14.68914598880828"
      },
      "geometry": {
        "type": "Point",
        "coordinates": [
          150.08107319518047,
          72.14602092492339
        ]
      }
    },
    {
      "type": "Feature",
      "properties": {
        "norad_id": 34955,
        "name": "COSMOS 2251 DEB",
        "group": "cosmos-2251-debris",
        "lat": -53.61256087246367,
        "lon": -131.19900545917963,
        "alt_km": 520.8652452354263,
        "timestamp": "2025-12-10T04:57:30.017454+00:00",
        "meta_object_name": "COSMOS 2251 DEB",
        "meta_object_id": "1993-036AEJ",
        "meta_epoch": "2025-12-09T11:36:19.113120",
        "meta_mean_motion": 15.00426203,
        "meta_eccentricity": 0.00779782,
        "meta_inclination": 74.0369,
        "meta_ra_of_asc_node": 253.1278,
        "meta_arg_of_pericenter": 323.6359,
        "meta_mean_anomaly": 35.9543,
        "meta_ephemeris_type": 0,
        "meta_classification_type": "U",
        "meta_norad_cat_id": 34955,
        "meta_element_set_no": 999,
        "meta_rev_at_epoch": 89985,
        "meta_bstar": 0.0011514576,
        "meta_mean_motion_dot": 0.00015439,
        "meta_mean_motion_ddot": 0,
        "tle_line1": "1 34955U 93036AEJ 25343.48355455  .00015439  00000+0  11515-2 0  9999",
        "tle_line2": "2 34955  74.0369 253.1278 0077978 323.6359  35.9543 15.00426203899855"
      },
      "geometry": {
        "type": "Point",
        "coordinates": [
          -131.19900545917963,
          -53.61256087246367
        ]
      }
    }
  ]
}